FLOCK 4G-13             
1 62621U 25009N   26068.70638971  .00053076  00000+0  16695-2 0  9995
2 62621  97.4019 151.0918 0003801 292.7207  67.3633 15.32770015 63700
STARLINK-35644          
1 66402U 25257Y   26068.64005810  .00011317  00000+0  39372-3 0  9994
2 66402  53.1577 217.4070 0000990  86.7928 273.3186 15.30192860 19710
